{"type": "FeatureCollection", "features": [ {"type": "Feature", "properties": {"norad_id": 66826, "name": "STARLINK-35898", "group": "last-30-days", "lat": 36.78614242756625, "lon": -159.90654316607734, "alt_km": 384.8887627589238, "timestamp": "2025-12-17T21:39:44.491810+00:00", "meta": {"OBJECT_NAME": "STARLINK-35898", "OBJECT_ID": "2025-280F", "EPOCH": "2025-12-17T14:00:03.000384", "MEAN_MOTION": 15.61727599, "ECCENTRICITY": 0.00033693, "INCLINATION": 70.0057, "RA_OF_ASC_NODE": 185.1796, "ARG_OF_PERICENTER": 276.5004, "MEAN_ANOMALY": 129.744, "EPHEMERIS_TYPE": 0, "CLASSIFICATION_TYPE": "U", "NORAD_CAT_ID": 66826, "ELEMENT_SET_NO": 999, "REV_AT_EPOCH": 367, "BSTAR": -0.026928424, "MEAN_MOTION_DOT": -0.02046468, "MEAN_MOTION_DDOT": 0}, "tle": {"line1": "1 66826U 25280F   25351.58336806 -.02046468  00000+0 -26928-1 0  9999", "line2": "2 66826  70.0057 185.1796 0003369 276.5004 129.7440 15.61727599  3676"}}, "geometry": {"type": "Point", "coordinates": [-159.90654316607734, 36.78614242756625]}}, {"type": "Feature", "properties": {"norad_id": 66827, "name": "STARLINK-35959", "group": "last-30-days", "lat": 38.5149327304962, "lon": -158.8622599400781, "alt_km": 384.69413096429616, "timestamp": "2025-12-17T21:39:44.491819+00:00", "meta": {"OBJECT_NAME": "STARLINK-35959", "OBJECT_ID": "2025-280G", "EPOCH": "2025-12-17T14:00:03.000384", "MEAN_MOTION": 15.61727881, "ECCENTRICITY": 0.00033952, "INCLINATION": 70.0057, "RA_OF_ASC_NODE": 185.1773, "ARG_OF_PERICENTER": 276.3521, "MEAN_ANOMALY": 131.8078, "EPHEMERIS_TYPE": 0, "CLASSIFICATION_TYPE": "U", "NORAD_CAT_ID": 66827, "ELEMENT_SET_NO": 999, "REV_AT_EPOCH": 367, "BSTAR": -0.026956539, "MEAN_MOTION_DOT": -0.02048381, "MEAN_MOTION_DDOT": 0}, "tle": {"line1": "1 66827U 25280G   25351.58336806 -.02048381  00000+0 -26957-1 0  9998", "line2": "2 66827  70.0057 185.1773 0003395 276.3521 131.8078 15.61727881  3678"}}, "geometry": {"type": "Point", "coordinates": [-158.8622599400781, 38.5149327304962]}}, {"type": "Feature", "properties": {"norad_id": 66828, "name": "STARLINK-35982", "group": "last-30-days", "lat": 41.94070500517459, "lon": -156.6096651822012, "alt_km": 384.6525550117567, "timestamp": "2025-12-17T21:39:44.491830+00:00", "meta": {"OBJECT_NAME": "STARLINK-35982", "OBJECT_ID": "2025-280H", "EPOCH": "2025-12-17T14:00:03.000384", "MEAN_MOTION": 15.61701019, "ECCENTRICITY": 0.00037139, "INCLINATION": 69.9997, "RA_OF_ASC_NODE": 185.1717, "ARG_OF_PERICENTER": 268.1785, "MEAN_ANOMALY": 143.8213, "EPHEMERIS_TYPE": 0, "CLASSIFICATION_TYPE": "U", "NORAD_CAT_ID": 66828, "ELEMENT_SET_NO": 999, "REV_AT_EPOCH": 367, "BSTAR": -0.026241899, "MEAN_MOTION_DOT": -0.01999168, "MEAN_MOTION_DDOT": 0}, "tle": {"line1": "1 66828U 25280H   25351.58336806 -.01999168  00000+0 -26242-1 0  9993", "line2": "2 66828  69.9997 185.1717 0003713 268.1785 143.8213 15.61701019  3671"}}, "geometry": {"type": "Point", "coordinates": [-156.6096651822012, 41.94070500517459]}}, {"type": "Feature", "properties": {"norad_id": 66829, "name": "STARLINK-36084", "group": "last-30-days", "lat": 40.23294039603745, "lon": -157.7625823246857, "alt_km": 384.8037520468988, "timestamp": "2025-12-17T21:39:44.491839+00:00", "meta": {"OBJECT_NAME": "STARLINK-36084", "OBJECT_ID": "2025-280J", "EPOCH": "2025-12-17T14:00:03.000384", "MEAN_MOTION": 15.61703381, "ECCENTRICITY": 0.00037214, "INCLINATION": 69.9995, "RA_OF_ASC_NODE": 185.1737, "ARG_OF_PERICENTER": 270.3454, "MEAN_ANOMALY": 139.7384, "EPHEMERIS_TYPE": 0, "CLASSIFICATION_TYPE": "U", "NORAD_CAT_ID": 66829, "ELEMENT_SET_NO": 999, "REV_AT_EPOCH": 351, "BSTAR": -0.026334582, "MEAN_MOTION_DOT": -0.02005539, "MEAN_MOTION_DDOT": 0}, "tle": {"line1": "1 66829U 25280J   25351.58336806 -.02005539  00000+0 -26335-1 0  9998", "line2": "2 66829  69.9995 185.1737 0003721 270.3454 139.7384 15.61703381  3519"}}, "geometry": {"type": "Point", "coordinates": [-157.7625823246857, 40.23294039603745]}}, {"type": "Feature", "properties": {"norad_id": 66830, "name": "STARLINK-35881", "group": "last-30-days", "lat": 43.63837628459164, "lon": -155.3927251633089, "alt_km": 384.3820013069608, "timestamp": "2025-12-17T21:39:44.491850+00:00", "meta": {"OBJECT_NAME": "STARLINK-35881", "OBJECT_ID": "2025-280K", "EPOCH": "2025-12-17T14:00:03.000384", "MEAN_MOTION": 15.61698053, "ECCENTRICITY": 0.00037304, "INCLINATION": 69.9997, "RA_OF_ASC_NODE": 185.1686, "ARG_OF_PERICENTER": 270.68, "MEAN_ANOMALY": 143.2375, "EPHEMERIS_TYPE": 0, "CLASSIFICATION_TYPE": "U", "NORAD_CAT_ID": 66830, "ELEMENT_SET_NO": 999, "REV_AT_EPOCH": 367, "BSTAR": -0.026194565, "MEAN_MOTION_DOT": -0.01995812, "MEAN_MOTION_DDOT": 0}, "tle": {"line1": "1 66830U 25280K   25351.58336806 -.01995812  00000+0 -26195-1 0  9995", "line2": "2 66830  69.9997 185.1686 0003730 270.6800 143.2375 15.61698053  3670"}}, "geometry": {"type": "Point", "coordinates": [-155.3927251633089, 43.63837628459164]}}, {"type": "Feature", "properties": {"norad_id": 66831, "name": "STARLINK-35788", "group": "last-30-days", "lat": 45.322202889709985, "lon": -154.10307525826087, "alt_km": 384.17782729388273, "timestamp": "2025-12-17T21:39:44.491859+00:00", "meta": {"OBJECT_NAME": "STARLINK-35788", "OBJECT_ID": "2025-280L", "EPOCH": "2025-12-17T14:00:03.000384", "MEAN_MOTION": 15.61699413, "ECCENTRICITY": 0.00037898, "INCLINATION": 69.9995, "RA_OF_ASC_NODE": 185.1674, "ARG_OF_PERICENTER": 271.999, "MEAN_ANOMALY": 143.8345, "EPHEMERIS_TYPE": 0, "CLASSIFICATION_TYPE": "U", "NORAD_CAT_ID": 66831, "ELEMENT_SET_NO": 999, "REV_AT_EPOCH": 367, "BSTAR": -0.026242833, "MEAN_MOTION_DOT": -0.01999194, "MEAN_MOTION_DDOT": 0}, "tle": {"line1": "1 66831U 25280L   25351.58336806 -.01999194  00000+0 -26243-1 0  9997", "line2": "2 66831  69.9995 185.1674 0003789 271.9990 143.8345 15.61699413  3678"}}, "geometry": {"type": "Point", "coordinates": [-154.10307525826087, 45.322202889709985]}}, {"type": "Feature", "properties": {"norad_id": 66832, "name": "STARLINK-35768", "group": "last-30-days", "lat": 46.98887602920082, "lon": -152.73835403362943, "alt_km": 383.9389362795828, "timestamp": "2025-12-17T21:39:44.491868+00:00", "meta": {"OBJECT_NAME": "STARLINK-35768", "OBJECT_ID": "2025-280M", "EPOCH": "2025-12-17T14:00:03.000384", "MEAN_MOTION": 15.61699016, "ECCENTRICITY": 0.00036724, "INCLINATION": 69.9993, "RA_OF_ASC_NODE": 185.164, "ARG_OF_PERICENTER": 271.4436, "MEAN_ANOMALY": 146.3062, "EPHEMERIS_TYPE": 0, "CLASSIFICATION_TYPE": "U", "NORAD_CAT_ID": 66832, "ELEMENT_SET_NO": 999, "REV_AT_EPOCH": 367, "BSTAR": -0.026224094, "MEAN_MOTION_DOT": -0.019978, "MEAN_MOTION_DDOT": 0}, "tle": {"line1": "1 66832U 25280M   25351.58336806 -.01997800  00000+0 -26224-1 0  9999", "line2": "2 66832  69.9993 185.1640 0003672 271.4436 146.3062 15.61699016  3674"}}, "geometry": {"type": "Point", "coordinates": [-152.73835403362943, 46.98887602920082]}}, {"type": "Feature", "properties": {"norad_id": 66833, "name": "STARLINK-35858", "group": "last-30-days", "lat": 48.640094352058696, "lon": -151.28316440362275, "alt_km": 383.8004140829653, "timestamp": "2025-12-17T21:39:44.491877+00:00", "meta": {"OBJECT_NAME": "STARLINK-35858", "OBJECT_ID": "2025-280N", "EPOCH": "2025-12-17T14:00:03.000384", "MEAN_MOTION": 15.61697843, "ECCENTRICITY": 0.00036808, "INCLINATION": 69.9996, "RA_OF_ASC_NODE": 185.1624, "ARG_OF_PERICENTER": 269.6591, "MEAN_ANOMALY": 150.009, "EPHEMERIS_TYPE": 0, "CLASSIFICATION_TYPE": "U", "NORAD_CAT_ID": 66833, "ELEMENT_SET_NO": 999, "REV_AT_EPOCH": 367, "BSTAR": -0.026183536, "MEAN_MOTION_DOT": -0.01995012, "MEAN_MOTION_DDOT": 0}, "tle": {"line1": "1 66833U 25280N   25351.58336806 -.01995012  00000+0 -26184-1 0  9998", "line2": "2 66833  69.9996 185.1624 0003680 269.6591 150.0090 15.61697843  3679"}}, "geometry": {"type": "Point", "coordinates": [-151.28316440362275, 48.640094352058696]}}, {"type": "Feature", "properties": {"norad_id": 66834, "name": "STARLINK-35840", "group": "last-30-days", "lat": 50.27071172328074, "lon": -149.7319299870531, "alt_km": 383.63912878366045, "timestamp": "2025-12-17T21:39:44.491886+00:00", "meta": {"OBJECT_NAME": "STARLINK-35840", "OBJECT_ID": "2025-280P", "EPOCH": "2025-12-17T14:00:03.000384", "MEAN_MOTION": 15.61697502, "ECCENTRICITY": 0.0003698, "INCLINATION": 69.9994, "RA_OF_ASC_NODE": 185.1591, "ARG_OF_PERICENTER": 269.0683, "MEAN_ANOMALY": 152.516, "EPHEMERIS_TYPE": 0, "CLASSIFICATION_TYPE": "U", "NORAD_CAT_ID": 66834, "ELEMENT_SET_NO": 999, "REV_AT_EPOCH": 367, "BSTAR": -0.026162287, "MEAN_MOTION_DOT": -0.01993583, "MEAN_MOTION_DDOT": 0}, "tle": {"line1": "1 66834U 25280P   25351.58336806 -.01993583  00000+0 -26162-1 0  9996", "line2": "2 66834  69.9994 185.1591 0003698 269.0683 152.5160 15.61697502  3673"}}, "geometry": {"type": "Point", "coordinates": [-149.7319299870531, 50.27071172328074]}}, {"type": "Feature", "properties": {"norad_id": 66835, "name": "STARLINK-35890", "group": "last-30-days", "lat": 51.880170970838726, "lon": -148.06919477947235, "alt_km": 383.50504308707605, "timestamp": "2025-12-17T21:39:44.491895+00:00", "meta": {"OBJECT_NAME": "STARLINK-35890", "OBJECT_ID": "2025-280Q", "EPOCH": "2025-12-17T14:00:03.000384", "MEAN_MOTION": 15.61698334, "ECCENTRICITY": 0.0003804, "INCLINATION": 69.9994, "RA_OF_ASC_NODE": 185.157, "ARG_OF_PERICENTER": 269.98, "MEAN_ANOMALY": 153.5207, "EPHEMERIS_TYPE": 0, "CLASSIFICATION_TYPE": "U", "NORAD_CAT_ID": 66835, "ELEMENT_SET_NO": 999, "REV_AT_EPOCH": 367, "BSTAR": -0.026201495, "MEAN_MOTION_DOT": -0.01996366, "MEAN_MOTION_DDOT": 0}, "tle": {"line1": "1 66835U 25280Q   25351.58336806 -.01996366  00000+0 -26201-1 0  9993", "line2": "2 66835  69.9994 185.1570 0003804 269.9800 153.5207 15.61698334  3677"}}, "geometry": {"type": "Point", "coordinates": [-148.06919477947235, 51.880170970838726]}}]}